{
  "type": "FeatureCollection",
  "features": [
    {
      "type": "Feature",
      "properties": {
        "norad_id": 31235,
        "name": "FENGYUN 1C DEB",
        "group": "fengyun-1c-debris",
        "lat": 30.78003195383533,
        "lon": -27.720869313547396,
        "alt_km": 952.1182748515312,
        "timestamp": "2025-12-25T11:37:44.716601+00:00",
        "meta_object_name": "FENGYUN 1C DEB",
        "meta_object_id": "1999-025BLR",
        "meta_epoch": "2025-12-24T02:46:21.503424",
        "meta_mean_motion": 14.18770202,
        "meta_eccentricity": 0.01798593,
        "meta_inclination": 98.4674,
        "meta_ra_of_asc_node": 145.8804,
        "meta_arg_of_pericenter": 348.7908,
        "meta_mean_anomaly": 10.9286,
        "meta_ephemeris_type": 0,
        "meta_classification_type": "U",
        "meta_norad_cat_id": 31235,
        "meta_element_set_no": 999,
        "meta_rev_at_epoch": 63328,
        "meta_bstar": 0.0032766626,
        "meta_mean_motion_dot": 7.96e-05,
        "meta_mean_motion_ddot": 0,
        "tle_line1": "1 31235U 99025BLR 25358.11552666  .00007960  00000+0  32767-2 0  9992",
        "tle_line2": "2 31235  98.4674 145.8804 0179859 348.7908  10.9286 14.18770202633282"
      },
      "geometry": {
        "type": "Point",
        "coordinates": [
          -27.720869313547396,
          30.78003195383533
        ]
      }
    },
    {
      "type": "Feature",
      "properties": {
        "norad_id": 31236,
        "name": "FENGYUN 1C DEB",
        "group": "fengyun-1c-debris",
        "lat": -43.396771112812175,
        "lon": -38.211118234199915,
        "alt_km": 815.1650974548311,
        "timestamp": "2025-12-25T11:37:44.716613+00:00",
        "meta_object_name": "FENGYUN 1C DEB",
        "meta_object_id": "1999-025BLS",
        "meta_epoch": "2025-12-23T19:59:02.166144",
        "meta_mean_motion": 13.86019444,
        "meta_eccentricity": 0.03149414,
        "meta_inclination": 98.5455,
        "meta_ra_of_asc_node": 312.105,
        "meta_arg_of_pericenter": 16.5726,
        "meta_mean_anomaly": 344.545,
        "meta_ephemeris_type": 0,
        "meta_classification_type": "U",
        "meta_norad_cat_id": 31236,
        "meta_element_set_no": 999,
        "meta_rev_at_epoch": 61178,
        "meta_bstar": 0.0059238181,
        "meta_mean_motion_dot": 0.00010034,
        "meta_mean_motion_ddot": 0,
        "tle_line1": "1 31236U 99025BLS 25357.83266396  .00010034  00000+0  59238-2 0  9991",
        "tle_line2": "2 31236  98.5455 312.1050 0314941  16.5726 344.5450 13.86019444611782"
      },
      "geometry": {
        "type": "Point",
        "coordinates": [
          -38.211118234199915,
          -43.396771112812175
        ]
      }
    },
    {
      "type": "Feature",
      "properties": {
        "norad_id": 31237,
        "name": "FENGYUN 1C DEB",
        "group": "fengyun-1c-debris",
        "lat": 9.412487939143277,
        "lon": 179.4223237949667,
        "alt_km": 837.4087925688118,
        "timestamp": "2025-12-25T11:37:44.716626+00:00",
        "meta_object_name": "FENGYUN 1C DEB",
        "meta_object_id": "1999-025BLT",
        "meta_epoch": "2025-12-24T23:05:09.551040",
        "meta_mean_motion": 14.3142706,
        "meta_eccentricity": 0.0088362,
        "meta_inclination": 98.4539,
        "meta_ra_of_asc_node": 357.5008,
        "meta_arg_of_pericenter": 312.6702,
        "meta_mean_anomaly": 46.706,
        "meta_ephemeris_type": 0,
        "meta_classification_type": "U",
        "meta_norad_cat_id": 31237,
        "meta_element_set_no": 999,
        "meta_rev_at_epoch": 97441,
        "meta_bstar": 0.00057437,
        "meta_mean_motion_dot": 1.547e-05,
        "meta_mean_motion_ddot": 0,
        "tle_line1": "1 31237U 99025BLT 25358.96191610  .00001547  00000+0  57437-3 0  9992",
        "tle_line2": "2 31237  98.4539 357.5008 0088362 312.6702  46.7060 14.31427060974418"
      },
      "geometry": {
        "type": "Point",
        "coordinates": [
          179.4223237949667,
          9.412487939143277
        ]
      }
    },
    {
      "type": "Feature",
      "properties": {
        "norad_id": 31239,
        "name": "FENGYUN 1C DEB",
        "group": "fengyun-1c-debris",
        "lat": 78.66891637032471,
        "lon": -135.6189573632254,
        "alt_km": 836.8843268387245,
        "timestamp": "2025-12-25T11:37:44.716636+00:00",
        "meta_object_name": "FENGYUN 1C DEB",
        "meta_object_id": "1999-025BLV",
        "meta_epoch": "2025-12-24T20:24:31.181760",
        "meta_mean_motion": 14.09876628,
        "meta_eccentricity": 0.00498851,
        "meta_inclination": 98.7587,
        "meta_ra_of_asc_node": 353.4674,
        "meta_arg_of_pericenter": 163.7429,
        "meta_mean_anomaly": 316.9251,
        "meta_ephemeris_type": 0,
        "meta_classification_type": "U",
        "meta_norad_cat_id": 31239,
        "meta_element_set_no": 999,
        "meta_rev_at_epoch": 96182,
        "meta_bstar": 0.00030984501,
        "meta_mean_motion_dot": 5.09e-06,
        "meta_mean_motion_ddot": 0,
        "tle_line1": "1 31239U 99025BLV 25358.85036090  .00000509  00000+0  30985-3 0  9998",
        "tle_line2": "2 31239  98.7587 353.4674 0049885 163.7429 316.9251 14.09876628961826"
      },
      "geometry": {
        "type": "Point",
        "coordinates": [
          -135.6189573632254,
          78.66891637032471
        ]
      }
    },
    {
      "type": "Feature",
      "properties": {
        "norad_id": 31241,
        "name": "FENGYUN 1C DEB",
        "group": "fengyun-1c-debris",
        "lat": -7.427273768478161,
        "lon": 148.48396845188913,
        "alt_km": 808.4846764221575,
        "timestamp": "2025-12-25T11:37:44.716646+00:00",
        "meta_object_name": "FENGYUN 1C DEB",
        "meta_object_id": "1999-025BLX",
        "meta_epoch": "2025-12-24T08:57:32.788224",
        "meta_mean_motion": 14.38737588,
        "meta_eccentricity": 0.00670578,
        "meta_inclination": 99.2349,
        "meta_ra_of_asc_node": 146.0737,
        "meta_arg_of_pericenter": 147.2706,
        "meta_mean_anomaly": 213.2661,
        "meta_ephemeris_type": 0,
        "meta_classification_type": "U",
        "meta_norad_cat_id": 31241,
        "meta_element_set_no": 999,
        "meta_rev_at_epoch": 97858,
        "meta_bstar": 0.00058842842,
        "meta_mean_motion_dot": 1.804e-05,
        "meta_mean_motion_ddot": 0,
        "tle_line1": "1 31241U 99025BLX 25358.37329616  .00001804  00000+0  58843-3 0  9999",
        "tle_line2": "2 31241  99.2349 146.0737 0067057 147.2706 213.2661 14.38737588978581"
      },
      "geometry": {
        "type": "Point",
        "coordinates": [
          148.48396845188913,
          -7.427273768478161
        ]
      }
    },
    {
      "type": "Feature",
      "properties": {
        "norad_id": 31243,
        "name": "FENGYUN 1C DEB",
        "group": "fengyun-1c-debris",
        "lat": -81.03781209071066,
        "lon": 116.88307999248981,
        "alt_km": 912.4673485032963,
        "timestamp": "2025-12-25T11:37:44.716656+00:00",
        "meta_object_name": "FENGYUN 1C DEB",
        "meta_object_id": "1999-025BLZ",
        "meta_epoch": "2025-12-23T13:58:38.376768",
        "meta_mean_motion": 14.07196727,
        "meta_eccentricity": 0.00662588,
        "meta_inclination": 98.7491,
        "meta_ra_of_asc_node": 37.4986,
        "meta_arg_of_pericenter": 138.173,
        "meta_mean_anomaly": 222.453,
        "meta_ephemeris_type": 0,
        "meta_classification_type": "U",
        "meta_norad_cat_id": 31243,
        "meta_element_set_no": 999,
        "meta_rev_at_epoch": 69460,
        "meta_bstar": 0.00056007275,
        "meta_mean_motion_dot": 9.15e-06,
        "meta_mean_motion_ddot": 0,
        "tle_line1": "1 31243U 99025BLZ 25357.58238862  .00000915  00000+0  56007-3 0  9997",
        "tle_line2": "2 31243  98.7491  37.4986 0066258 138.1730 222.4530 14.07196727694607"
      },
      "geometry": {
        "type": "Point",
        "coordinates": [
          116.88307999248981,
          -81.03781209071066
        ]
      }
    },
    {
      "type": "Feature",
      "properties": {
        "norad_id": 31244,
        "name": "FENGYUN 1C DEB",
        "group": "fengyun-1c-debris",
        "lat": -71.52039198529327,
        "lon": -145.3505315995592,
        "alt_km": 909.3606767733609,
        "timestamp": "2025-12-25T11:37:44.716666+00:00",
        "meta_object_name": "FENGYUN 1C DEB",
        "meta_object_id": "1999-025BMA",
        "meta_epoch": "2025-12-22T10:42:55.008864",
        "meta_mean_motion": 14.0626394,
        "meta_eccentricity": 0.01029519,
        "meta_inclination": 99.0337,
        "meta_ra_of_asc_node": 60.0445,
        "meta_arg_of_pericenter": 148.0726,
        "meta_mean_anomaly": 212.6736,
        "meta_ephemeris_type": 0,
        "meta_classification_type": "U",
        "meta_norad_cat_id": 31244,
        "meta_element_set_no": 999,
        "meta_rev_at_epoch": 57776,
        "meta_bstar": 0.00030551963,
        "meta_mean_motion_dot": 4.84e-06,
        "meta_mean_motion_ddot": 0,
        "tle_line1": "1 31244U 99025BMA 25356.44647001  .00000484  00000+0  30552-3 0  9999",
        "tle_line2": "2 31244  99.0337  60.0445 0102951 148.0726 212.6736 14.06263940577766"
      },
      "geometry": {
        "type": "Point",
        "coordinates": [
          -145.3505315995592,
          -71.52039198529327
        ]
      }
    }
  ]
}